NORAD_CAT_ID,OBJECT_NAME,OBJECT_TYPE,EPOCH,MEAN_MOTION,ECCENTRICITY,INCLINATION,RA_OF_ASC_NODE,ARG_OF_PERICENTER,MEAN_ANOMALY,BSTAR,MEAN_MOTION_DOT,MEAN_MOTION_DDOT,TLE_LINE0,TLE_LINE1,TLE_LINE2,SEMIMAJOR_AXIS,PERIOD,APOGEE,PERIGEE,DECAYED
49451.0,STARLINK-3125,PAYLOAD,2022-11-29 07:37:36,15.08840431,0.0003073,53.217,189.8549,37.0704,323.05,-2.0844e-05,-6.2e-06,0.0,0 STARLINK-3125,1 49451U 21104AV  22333.31778310 -.00000620  00000-0 -20844-4 0  9996,2 49451  53.2170 189.8549 0003073  37.0704 323.0500 15.08840431 58168,6917.879,95.438,541.87,537.618,0.0
49451.0,STARLINK-3125,PAYLOAD,2022-11-29 18:45:19,15.08820625,0.00031,53.2174,187.7752,40.4749,319.6474,4.1008e-05,3.64e-06,0.0,0 STARLINK-3125,1 49451U 21104AV  22333.78147865  .00000364  00000-0  41008-4 0  9990,2 49451  53.2174 187.7752 0003100  40.4749 319.6474 15.08820625 59315,6917.94,95.439,541.9490000000002,537.66,0.0
49451.0,STARLINK-3125,PAYLOAD,2022-11-30 13:49:57,15.08827942,0.0003308,53.2173,184.2062,42.723,317.4019,7.5137e-05,9.07e-06,0.0,0 STARLINK-3125,1 49451U 21104AV  22334.57636148  .00000907  00000-0  75137-4 0  9998,2 49451  53.2173 184.2062 0003308  42.7230 317.4019 15.08827942 58353,6917.917,95.438,542.071,537.494,0.0
49451.0,STARLINK-3125,PAYLOAD,2022-11-30 20:11:30,15.08829886,0.0003228,53.2172,183.0168,43.2233,316.9012,6.4639e-05,7.400000000000001e-06,0.0,0 STARLINK-3125,1 49451U 21104AV  22334.84132208  .00000740  00000-0  64639-4 0  9996,2 49451  53.2172 183.0168 0003228  43.2233 316.9012 15.08829886 58396,6917.911,95.438,542.009,537.543,0.0
49451.0,STARLINK-3125,PAYLOAD,2022-12-01 13:40:43,15.08846132,0.0003513,53.2169,179.7451,45.2617,314.866,0.00022394,3.278e-05,0.0,0 STARLINK-3125,1 49451U 21104AV  22335.56994523  .00003278  00000-0  22394-3 0  9992,2 49451  53.2169 179.7451 0003513  45.2617 314.8660 15.08846132 58506,6917.861999999999,95.437,542.1569999999998,537.2959999999998,0.0
49451.0,STARLINK-3125,PAYLOAD,2022-12-01 20:02:16,15.08842672,0.0003353,53.2169,178.5558,43.427,316.6986,0.00017954,2.57e-05,0.0,0 STARLINK-3125,1 49451U 21104AV  22335.83490786  .00002570  00000-0  17954-3 0  9994,2 49451  53.2169 178.5558 0003353  43.4270 316.6986 15.08842672 59628,6917.871999999999,95.437,542.057,537.418,0.0
49451.0,STARLINK-3125,PAYLOAD,2022-12-02 11:56:08,15.08835491,0.0003356,53.2167,175.5822,43.8302,316.2956,3.7746e-05,3.12e-06,0.0,0 STARLINK-3125,1 49451U 21104AV  22336.49731766  .00000312  00000-0  37746-4 0  9997,2 49451  53.2167 175.5822 0003356  43.8302 316.2956 15.08835491 59725,6917.894,95.438,542.081,537.438,0.0
49451.0,STARLINK-3125,PAYLOAD,2022-12-02 19:53:03,15.08838975,0.0003383,53.2165,174.0949,43.3165,316.8092,5.7518e-05,6.27e-06,0.0,0 STARLINK-3125,1 49451U 21104AV  22336.82851469  .00000627  00000-0  57518-4 0  9995,2 49451  53.2165 174.0949 0003383  43.3165 316.8092 15.08838975 58691,6917.884,95.438,542.089,537.408,0.0
49451.0,STARLINK-3125,PAYLOAD,2022-12-03 13:22:17,15.08846391,0.0003454,53.2166,170.8241,44.5576,315.5694,-1.9937e-05,-6.06e-06,0.0,0 STARLINK-3125,1 49451U 21104AV  22337.55714901 -.00000606  00000-0 -19937-4 0  9997,2 49451  53.2166 170.8241 0003454  44.5576 315.5694 15.08846391 59886,6917.861,95.437,542.115,537.336,0.0
49451.0,STARLINK-3125,PAYLOAD,2022-12-03 19:43:49,15.08848685,0.0003393,53.2164,169.6338,46.0077,314.1195,3.4317e-06,-2.34e-06,0.0,0 STARLINK-3125,1 49451U 21104AV  22337.82210541 -.00000234  00000-0  34317-5 0  9994,2 49451  53.2164 169.6338 0003393  46.0077 314.1195 15.08848685 58846,6917.854,95.437,542.066,537.372,0.0
49451.0,STARLINK-3125,PAYLOAD,2022-12-04 13:13:04,15.08841399,0.0003432,53.2165,166.3639,44.9983,315.1287,6.3298e-05,7.19e-06,0.0,0 STARLINK-3125,1 49451U 21104AV  22338.55074665  .00000719  00000-0  63298-4 0  9996,2 49451  53.2165 166.3639 0003432  44.9983 315.1287 15.08841399 58952,6917.876,95.437,542.115,537.367,0.0
49451.0,STARLINK-3125,PAYLOAD,2022-12-04 21:10:00,15.08833555,0.0003413,53.2165,164.8765,45.6908,314.4363,-1.0054e-05,-4.49e-06,0.0,0 STARLINK-3125,1 49451U 21104AV  22338.88195447 -.00000449  00000-0 -10054-4 0  9998,2 49451  53.2165 164.8765 0003413  45.6908 314.4363 15.08833555 59008,6917.9,95.438,542.126,537.404,0.0
49451.0,STARLINK-3125,PAYLOAD,2022-12-04 22:45:23,15.08833838,0.0003407,53.2165,164.5789,45.8932,314.2340000000001,-6.2646e-06,-3.89e-06,0.0,0 STARLINK-3125,1 49451U 21104AV  22338.94819441 -.00000389  00000-0 -62646-5 0  9990,2 49451  53.2165 164.5789 0003407  45.8932 314.2340 15.08833838 60091,6917.899,95.438,542.121,537.4069999999998,0.0
49451.0,STARLINK-3125,PAYLOAD,2022-12-05 13:03:52,15.08837181,0.0003384,53.2167,161.9026,47.8476,312.2803,-2.7874e-05,-7.32e-06,0.0,0 STARLINK-3125,1 49451U 21104AV  22339.54435445 -.00000732  00000-0 -27874-4 0  9990,2 49451  53.2167 161.9026 0003384  47.8476 312.2803 15.08837181 59104,6917.889,95.438,542.095,537.413,0.0
49451.0,STARLINK-3125,PAYLOAD,2022-12-05 21:00:47,15.08839855,0.0003425,53.2168,160.4159,48.0824,312.046,-2.2101e-06,-3.24e-06,0.0,0 STARLINK-3125,1 49451U 21104AV  22339.87555239 -.00000324  00000-0 -22101-5 0  9996,2 49451  53.2168 160.4159 0003425  48.0824 312.0460 15.08839855 59154,6917.880999999999,95.438,542.115,537.376,0.0
49451.0,STARLINK-3125,PAYLOAD,2022-12-06 04:57:43,15.08839527,0.0003437,53.2168,158.929,48.5085,311.6202,3.9078e-05,3.33e-06,0.0,0 STARLINK-3125,1 49451U 21104AV  22340.20675203  .00000333  00000-0  39078-4 0  9997,2 49451  53.2168 158.9290 0003437  48.5085 311.6202 15.08839527 60280,6917.882,95.438,542.125,537.369,0.0
49451.0,STARLINK-3125,PAYLOAD,2022-12-06 12:54:39,15.08836185,0.0003431,53.2168,157.442,48.4546,311.6740000000001,0.00011439,1.532e-05,0.0,0 STARLINK-3125,1 49451U 21104AV  22340.53795206  .00001532  00000-0  11439-3 0  9991,2 49451  53.2168 157.4420 0003431  48.4546 311.6740 15.08836185 59253,6917.892,95.438,542.131,537.384,0.0
49451.0,STARLINK-3125,PAYLOAD,2022-12-06 16:05:25,15.08837277,0.0003435,53.2169,156.8474,48.8105,311.3183,0.00011843,1.597e-05,0.0,0 STARLINK-3125,1 49451U 21104AV  22340.67043125  .00001597  00000-0  11843-3 0  9992,2 49451  53.2169 156.8474 0003435  48.8105 311.3183 15.08837277 59278,6917.889,95.438,542.13,537.377,0.0
49451.0,STARLINK-3125,PAYLOAD,2022-12-07 12:45:26,15.08840332,0.000347,53.2174,152.9814,51.2368,308.8933,9.946e-05,1.295e-05,0.0,0 STARLINK-3125,1 49451U 21104AV  22341.53155195  .00001295  00000-0  99460-4 0  9996,2 49451  53.2174 152.9814 0003470  51.2368 308.8933 15.08840332 60482,6917.879,95.438,542.145,537.344,0.0
49451.0,STARLINK-3125,PAYLOAD,2022-12-07 20:42:22,15.08835252,0.0003489,53.2171,151.4947,50.7427,309.3875,2.07e-05,4.1e-07,0.0,0 STARLINK-3125,1 49451U 21104AV  22341.86275850  .00000041  00000-0  20700-4 0  9992,2 49451  53.2171 151.4947 0003489  50.7427 309.3875 15.08835252 60532,6917.895,95.438,542.174,537.346,0.0
49451.0,STARLINK-3125,PAYLOAD,2022-12-08 11:00:50,15.08839648,0.000346,53.2172,148.8185,52.0052,308.1252,4.097e-05,3.63e-06,0.0,0 STARLINK-3125,1 49451U 21104AV  22342.45891548  .00000363  00000-0  40970-4 0  9994,2 49451  53.2172 148.8185 0003460  52.0052 308.1252 15.08839648 59543,6917.880999999999,95.438,542.14,537.3530000000002,0.0
49451.0,STARLINK-3125,PAYLOAD,2022-12-08 17:22:22,15.08841286,0.0003465,53.2171,147.6289,52.2992,307.8313,5.4545e-05,5.79e-06,0.0,0 STARLINK-3125,1 49451U 21104AV  22342.72387375  .00000579  00000-0  54545-4 0  9994,2 49451  53.2171 147.6289 0003465  52.2992 307.8313 15.08841286 60664,6917.876,95.437,542.139,537.344,0.0
49451.0,STARLINK-3125,PAYLOAD,2022-12-09 10:51:25,15.090825,0.0003413,53.2174,144.3587,6.2866,353.8168,-0.0020284,-0.00032644,0.0,0 STARLINK-3125,1 49451U 21104AV  22343.45238014 -.00032644  00000-0 -20284-2 0  9991,2 49451  53.2174 144.3587 0003413   6.2866 353.8168 15.09082500 60772,6917.139,95.422,541.365,536.643,0.0
49451.0,STARLINK-3125,PAYLOAD,2022-12-09 17:13:09,15.08829751,0.0003328,53.2175,143.1712,35.1498,324.9714,0.00011132,1.483e-05,0.0,0 STARLINK-3125,1 49451U 21104AV  22343.71747552  .00001483  00000-0  11132-3 0  9990,2 49451  53.2175 143.1712 0003328  35.1498 324.9714 15.08829751 60814,6917.9119999999975,95.438,542.0790000000002,537.474,0.0
49451.0,STARLINK-3125,PAYLOAD,2022-12-10 13:53:11,15.08795416,0.000201,53.217,139.3084,4.2135,355.8874,0.00046697,7.143e-05,0.0,0 STARLINK-3125,1 49451U 21104AV  22344.57860283  .00007143  00000-0  46697-3 0  9995,2 49451  53.2170 139.3084 0002010   4.2135 355.8874 15.08795416 60944,6918.017,95.44,541.2719999999998,538.491,0.0
49451.0,STARLINK-3125,PAYLOAD,2022-12-10 18:39:22,15.08817897,0.000342,53.2174,138.417,38.9154,321.2084,-0.0007827999999999,-0.00012719,0.0,0 STARLINK-3125,1 49451U 21104AV  22344.77734685 -.00012719  00000-0 -78280-3 0  9993,2 49451  53.2174 138.4170 0003420  38.9154 321.2084 15.08817897 60976,6917.948,95.439,542.179,537.447,0.0
49451.0,STARLINK-3125,PAYLOAD,2022-12-11 13:43:57,15.08808263,0.0002441,53.2168,134.8468,14.7713,345.335,0.00045593,6.969e-05,0.0,0 STARLINK-3125,1 49451U 21104AV  22345.57219652  .00006969  00000-0  45593-3 0  9993,2 49451  53.2168 134.8468 0002441  14.7713 345.3350 15.08808263 61098,6917.977,95.44,541.531,538.154,0.0
49451.0,STARLINK-3125,PAYLOAD,2022-12-11 15:19:20,15.08838982,0.0003654,53.2175,134.5476,48.562,311.5685,6.5707e-05,7.57e-06,0.0,0 STARLINK-3125,1 49451U 21104AV  22345.63843146  .00000757  00000-0  65707-4 0  9990,2 49451  53.2175 134.5476 0003654  48.5620 311.5685 15.08838982 61100,6917.884,95.438,542.276,537.221,0.0
49451.0,STARLINK-3125,PAYLOAD,2022-12-12 10:23:58,15.08838262,0.0003476,53.2167,130.9772,54.9758,305.156,6.8163e-06,-1.8e-06,0.0,0 STARLINK-3125,1 49451U 21104AV  22346.43331401 -.00000180  00000-0  68163-5 0  9996,2 49451  53.2167 130.9772 0003476  54.9758 305.1560 15.08838262 60140,6917.886,95.438,542.155,537.346,0.0
